[{"OBJECT_NAME":"STARLINK-3606","OBJECT_ID":"2022-017AR","EPOCH":"2026-03-09T21:42:03.991104","MEAN_MOTION":15.08835121,"ECCENTRICITY":0.00013924,"INCLINATION":53.2185,"RA_OF_ASC_NODE":338.1549,"ARG_OF_PERICENTER":108.7462,"MEAN_ANOMALY":251.3681,"EPHEMERIS_TYPE":0,"CLASSIFICATION_TYPE":"U","NORAD_CAT_ID":51807,"ELEMENT_SET_NO":999,"REV_AT_EPOCH":22414,"BSTAR":-0.00011787987,"MEAN_MOTION_DOT":-2.163e-5,"MEAN_MOTION_DDOT":0},{"OBJECT_NAME":"PSLV DEB","OBJECT_ID":"2001-049PF","EPOCH":"2026-02-25T09:35:51.227808","MEAN_MOTION":15.03011877,"ECCENTRICITY":0.00263657,"INCLINATION":98.0083,"RA_OF_ASC_NODE":118.9106,"ARG_OF_PERICENTER":265.6966,"MEAN_ANOMALY":94.1245,"EPHEMERIS_TYPE":0,"CLASSIFICATION_TYPE":"U","NORAD_CAT_ID":28853,"ELEMENT_SET_NO":999,"REV_AT_EPOCH":68879,"BSTAR":0.00037786861,"MEAN_MOTION_DOT":5.057e-5,"MEAN_MOTION_DDOT":0}]
